[{"OBJECT_NAME":"OCO 2","OBJECT_ID":"2014-035A","EPOCH":"2026-03-07T02:41:39.077376","MEAN_MOTION":14.57090915,"ECCENTRICITY":0.0001212,"INCLINATION":98.2094,"RA_OF_ASC_NODE":8.9964,"ARG_OF_PERICENTER":91.7777,"MEAN_ANOMALY":268.356,"EPHEMERIS_TYPE":0,"CLASSIFICATION_TYPE":"U","NORAD_CAT_ID":40059,"ELEMENT_SET_NO":999,"REV_AT_EPOCH":62118,"BSTAR":0.00033725,"MEAN_MOTION_DOT":1.474e-5,"MEAN_MOTION_DDOT":0},{"OBJECT_NAME":"BRITE-PL2 (HEWELIUSZ)","OBJECT_ID":"2014-049B","EPOCH":"2026-03-07T04:41:13.926912","MEAN_MOTION":14.94166942,"ECCENTRICITY":0.0015613,"INCLINATION":97.8983,"RA_OF_ASC_NODE":177.511,"ARG_OF_PERICENTER":88.9219,"MEAN_ANOMALY":271.3789,"EPHEMERIS_TYPE":0,"CLASSIFICATION_TYPE":"U","NORAD_CAT_ID":40119,"ELEMENT_SET_NO":999,"REV_AT_EPOCH":62621,"BSTAR":0.00031246,"MEAN_MOTION_DOT":3.294e-5,"MEAN_MOTION_DDOT":0},{"OBJECT_NAME":"MMS 1","OBJECT_ID":"2015-011A","EPOCH":"2026-03-07T06:00:00.998784","MEAN_MOTION":0.28179295,"ECCENTRICITY":0.8421363,"INCLINATION":70.7972,"RA_OF_ASC_NODE":350.1855,"ARG_OF_PERICENTER":165.2641,"MEAN_ANOMALY":341.0327,"EPHEMERIS_TYPE":0,"CLASSIFICATION_TYPE":"U","NORAD_CAT_ID":40482,"ELEMENT_SET_NO":999,"REV_AT_EPOCH":134,"BSTAR":0,"MEAN_MOTION_DOT":-1.952e-5,"MEAN_MOTION_DDOT":0},{"OBJECT_NAME":"MMS 2","OBJECT_ID":"2015-011B","EPOCH":"2026-03-07T06:00:00.998784","MEAN_MOTION":0.28176915,"ECCENTRICITY":0.8422146,"INCLINATION":70.7975,"RA_OF_ASC_NODE":350.1872,"ARG_OF_PERICENTER":165.2732,"MEAN_ANOMALY":341.0178,"EPHEMERIS_TYPE":0,"CLASSIFICATION_TYPE":"U","NORAD_CAT_ID":40483,"ELEMENT_SET_NO":999,"REV_AT_EPOCH":134,"BSTAR":0,"MEAN_MOTION_DOT":-1.953e-5,"MEAN_MOTION_DDOT":0},{"OBJECT_NAME":"MMS 3","OBJECT_ID":"2015-011C","EPOCH":"2026-03-07T06:00:00.998784","MEAN_MOTION":0.28177041,"ECCENTRICITY":0.8421426,"INCLINATION":70.7999,"RA_OF_ASC_NODE":350.1919,"ARG_OF_PERICENTER":165.2673,"MEAN_ANOMALY":341.026,"EPHEMERIS_TYPE":0,"CLASSIFICATION_TYPE":"U","NORAD_CAT_ID":40484,"ELEMENT_SET_NO":999,"REV_AT_EPOCH":134,"BSTAR":0,"MEAN_MOTION_DOT":-1.953e-5,"MEAN_MOTION_DDOT":0},{"OBJECT_NAME":"MMS 4","OBJECT_ID":"2015-011D","EPOCH":"2026-03-07T06:00:00.998784","MEAN_MOTION":0.28179274,"ECCENTRICITY":0.8420881,"INCLINATION":70.7979,"RA_OF_ASC_NODE":350.1874,"ARG_OF_PERICENTER":165.2716,"MEAN_ANOMALY":341.0104,"EPHEMERIS_TYPE":0,"CLASSIFICATION_TYPE":"U","NORAD_CAT_ID":40485,"ELEMENT_SET_NO":999,"REV_AT_EPOCH":134,"BSTAR":0,"MEAN_MOTION_DOT":-1.952e-5,"MEAN_MOTION_DDOT":0},{"OBJECT_NAME":"ASTROSAT","OBJECT_ID":"2015-052A","EPOCH":"2026-03-06T23:07:34.440384","MEAN_MOTION":14.82289139,"ECCENTRICITY":0.000795,"INCLINATION":5.9961,"RA_OF_ASC_NODE":171.0513,"ARG_OF_PERICENTER":11.0968,"MEAN_ANOMALY":348.9335,"EPHEMERIS_TYPE":0,"CLASSIFICATION_TYPE":"U","NORAD_CAT_ID":40930,"ELEMENT_SET_NO":999,"REV_AT_EPOCH":56463,"BSTAR":0.00020625,"MEAN_MOTION_DOT":2.358e-5,"MEAN_MOTION_DDOT":0},{"OBJECT_NAME":"DAMPE","OBJECT_ID":"2015-078A","EPOCH":"2026-03-07T04:26:39.223680","MEAN_MOTION":15.30489179,"ECCENTRICITY":0.0013905,"INCLINATION":97.458,"RA_OF_ASC_NODE":71.1621,"ARG_OF_PERICENTER":78.9976,"MEAN_ANOMALY":281.2828,"EPHEMERIS_TYPE":0,"CLASSIFICATION_TYPE":"U","NORAD_CAT_ID":41173,"ELEMENT_SET_NO":999,"REV_AT_EPOCH":56894,"BSTAR":8.1317e-5,"MEAN_MOTION_DOT":2.325e-5,"MEAN_MOTION_DDOT":0},{"OBJECT_NAME":"PISAT","OBJECT_ID":"2016-059B","EPOCH":"2026-03-06T23:08:06.603648","MEAN_MOTION":14.68764955,"ECCENTRICITY":0.0029326,"INCLINATION":97.8191,"RA_OF_ASC_NODE":70.8239,"ARG_OF_PERICENTER":169.3306,"MEAN_ANOMALY":190.8529,"EPHEMERIS_TYPE":0,"CLASSIFICATION_TYPE":"U","NORAD_CAT_ID":41784,"ELEMENT_SET_NO":999,"REV_AT_EPOCH":50473,"BSTAR":0.00024003,"MEAN_MOTION_DOT":1.361e-5,"MEAN_MOTION_DDOT":0},{"OBJECT_NAME":"HXMT (HUIYAN)","OBJECT_ID":"2017-034A","EPOCH":"2026-03-07T05:03:09.454176","MEAN_MOTION":15.17419323,"ECCENTRICITY":0.0032671,"INCLINATION":43.0153,"RA_OF_ASC_NODE":30.4553,"ARG_OF_PERICENTER":220.8483,"MEAN_ANOMALY":138.9915,"EPHEMERIS_TYPE":0,"CLASSIFICATION_TYPE":"U","NORAD_CAT_ID":42758,"ELEMENT_SET_NO":999,"REV_AT_EPOCH":48216,"BSTAR":0.00035463,"MEAN_MOTION_DOT":7.085e-5,"MEAN_MOTION_DDOT":0},{"OBJECT_NAME":"FLYING LAPTOP","OBJECT_ID":"2017-042G","EPOCH":"2026-03-07T04:15:18.012384","MEAN_MOTION":15.00494369,"ECCENTRICITY":0.0018941,"INCLINATION":97.4268,"RA_OF_ASC_NODE":225.9628,"ARG_OF_PERICENTER":103.5602,"MEAN_ANOMALY":256.7734,"EPHEMERIS_TYPE":0,"CLASSIFICATION_TYPE":"U","NORAD_CAT_ID":42831,"ELEMENT_SET_NO":999,"REV_AT_EPOCH":47115,"BSTAR":0.00023799,"MEAN_MOTION_DOT":2.952e-5,"MEAN_MOTION_DDOT":0},{"OBJECT_NAME":"ZHANGHENG 1-01 (CSES-1)","OBJECT_ID":"2018-015C","EPOCH":"2026-03-07T05:18:20.149920","MEAN_MOTION":15.20964726,"ECCENTRICITY":0.0014848,"INCLINATION":97.6752,"RA_OF_ASC_NODE":229.9067,"ARG_OF_PERICENTER":253.7274,"MEAN_ANOMALY":106.2327,"EPHEMERIS_TYPE":0,"CLASSIFICATION_TYPE":"U","NORAD_CAT_ID":43194,"ELEMENT_SET_NO":999,"REV_AT_EPOCH":44914,"BSTAR":0.00058746,"MEAN_MOTION_DOT":0.0001299,"MEAN_MOTION_DDOT":0},{"OBJECT_NAME":"SALSAT","OBJECT_ID":"2020-068K","EPOCH":"2026-03-06T22:08:58.267104","MEAN_MOTION":15.28115498,"ECCENTRICITY":0.0008446,"INCLINATION":97.8857,"RA_OF_ASC_NODE":62.8923,"ARG_OF_PERICENTER":308.5318,"MEAN_ANOMALY":51.5163,"EPHEMERIS_TYPE":0,"CLASSIFICATION_TYPE":"U","NORAD_CAT_ID":46495,"ELEMENT_SET_NO":999,"REV_AT_EPOCH":29973,"BSTAR":0.00041467,"MEAN_MOTION_DOT":0.00011302,"MEAN_MOTION_DDOT":0},{"OBJECT_NAME":"IXPE","OBJECT_ID":"2021-121A","EPOCH":"2026-03-07T04:00:03.000096","MEAN_MOTION":15.09171779,"ECCENTRICITY":0.0007005,"INCLINATION":0.2308,"RA_OF_ASC_NODE":8.2221,"ARG_OF_PERICENTER":335.9742,"MEAN_ANOMALY":145.9712,"EPHEMERIS_TYPE":0,"CLASSIFICATION_TYPE":"U","NORAD_CAT_ID":49954,"ELEMENT_SET_NO":999,"REV_AT_EPOCH":541,"BSTAR":0.00084747,"MEAN_MOTION_DOT":0.0001481,"MEAN_MOTION_DDOT":0}]
