OCO 2                   
1 40059U 14035A   26066.11225784  .00001474  00000+0  33725-3 0  9999
2 40059  98.2094   8.9964 0001212  91.7777 268.3560 14.57090915621181
BRITE-PL2 (HEWELIUSZ)   
1 40119U 14049B   26066.19530008  .00003294  00000+0  31246-3 0  9995
2 40119  97.8983 177.5110 0015613  88.9219 271.3789 14.94166942626216
MMS 1                   
1 40482U 15011A   26066.25001156 -.00001952  00000+0  00000+0 0  9992
2 40482  70.7972 350.1855 8421363 165.2641 341.0327  0.28179295  1342
MMS 2                   
1 40483U 15011B   26066.25001156 -.00001953  00000+0  00000+0 0  9994
2 40483  70.7975 350.1872 8422146 165.2732 341.0178  0.28176915  1346
MMS 3                   
1 40484U 15011C   26066.25001156 -.00001953  00000+0  00000+0 0  9995
2 40484  70.7999 350.1919 8421426 165.2673 341.0260  0.28177041  1342
MMS 4                   
1 40485U 15011D   26066.25001156 -.00001952  00000+0  00000+0 0  9995
2 40485  70.7979 350.1874 8420881 165.2716 341.0104  0.28179274  1340
ASTROSAT                
1 40930U 15052A   26065.96359306  .00002358  00000+0  20625-3 0  9994
2 40930   5.9961 171.0513 0007950  11.0968 348.9335 14.82289139564638
DAMPE                   
1 41173U 15078A   26066.18517620  .00002325  00000+0  81317-4 0  9992
2 41173  97.4580  71.1621 0013905  78.9976 281.2828 15.30489179568943
PISAT                   
1 41784U 16059B   26065.96396532  .00001361  00000+0  24003-3 0  9999
2 41784  97.8191  70.8239 0029326 169.3306 190.8529 14.68764955504738
HXMT (HUIYAN)           
1 42758U 17034A   26066.21052609  .00007085  00000+0  35463-3 0  9999
2 42758  43.0153  30.4553 0032671 220.8483 138.9915 15.17419323482163
FLYING LAPTOP           
1 42831U 17042G   26066.17729181  .00002952  00000+0  23799-3 0  9998
2 42831  97.4268 225.9628 0018941 103.5602 256.7734 15.00494369471153
ZHANGHENG 1-01 (CSES-1) 
1 43194U 18015C   26066.22106655  .00012990  00000+0  58746-3 0  9996
2 43194  97.6752 229.9067 0014848 253.7274 106.2327 15.20964726449144
SALSAT                  
1 46495U 20068K   26065.92289661  .00011302  00000+0  41467-3 0  9997
2 46495  97.8857  62.8923 0008446 308.5318  51.5163 15.28115498299739
IXPE                    
1 49954U 21121A   26066.16670139  .00014810  00000+0  84747-3 0  9997
2 49954   0.2308   8.2221 0007005 335.9742 145.9712 15.09171779  5412
